OBJECT_NAME,OBJECT_ID,EPOCH,MEAN_MOTION,ECCENTRICITY,INCLINATION,RA_OF_ASC_NODE,ARG_OF_PERICENTER,MEAN_ANOMALY,EPHEMERIS_TYPE,CLASSIFICATION_TYPE,NORAD_CAT_ID,ELEMENT_SET_NO,REV_AT_EPOCH,BSTAR,MEAN_MOTION_DOT,MEAN_MOTION_DDOT
STARLINK-11747 [DTC],2025-124F,2026-07-05T22:54:42.915168,15.70824651,.00016789,43.0013,36.4197,273.7000,86.3676,0,U,64322,999,6143,.10941738E-2,.142285E-2,0
STARLINK-11728 [DTC],2025-124G,2026-07-05T23:40:21.675936,15.70892542,.0002786,43.0009,35.7796,278.3708,81.6844,0,U,64323,999,6144,.13819512E-2,.181207E-2,0
STARLINK-11696 [DTC],2025-124H,2026-07-05T23:55:42.085632,15.70819253,.00011871,42.9995,35.8652,266.3427,93.7304,0,U,64324,999,6144,.12588976E-2,.16417E-2,0
STARLINK-11698 [DTC],2025-124J,2026-07-05T22:33:04.633344,15.70837619,.00018276,42.9992,36.2992,274.3573,85.7086,0,U,64325,999,6143,.99030839E-3,.128594E-2,0
STARLINK-11674 [DTC],2025-124L,2026-07-05T23:48:02.832480,15.70875182,.00015313,43.0002,35.8208,263.5786,96.4908,0,U,64327,999,6144,.2071933E-2,.274793E-2,0
STARLINK-11707 [DTC],2025-124M,2026-07-06T00:10:58.941696,15.70841902,.0001644,43.0013,35.9498,272.1156,87.9523,0,U,64328,999,6144,.17274523E-2,.227395E-2,0
STARLINK-11734 [DTC],2025-124N,2026-07-05T23:32:45.751776,15.70830826,.00015358,43.0007,35.7359,288.0787,71.9913,0,U,64329,999,6144,.13477726E-2,.176134E-2,0
STARLINK-34252,2025-124P,2026-07-06T00:11:34.435680,15.27554311,.00020954,43.0030,173.6914,237.4161,122.6489,0,U,64330,999,5987,.9191327E-3,.25097E-3,0
STARLINK-34050,2025-124Q,2026-07-05T09:49:20.814816,15.27608177,.00012099,42.9998,176.9283,267.7313,92.3400,0,U,64331,999,6084,.70214047E-3,.19126E-3,0
STARLINK-33782,2025-124R,2026-07-05T11:06:50.737536,15.27622567,.00017793,43.0013,176.4689,271.3767,88.6880,0,U,64332,999,5979,.12258938E-2,.3367E-3,0
STARLINK-34207,2025-124S,2026-07-06T00:06:01.278144,15.27580183,.00018677,43.0023,173.6566,262.2943,97.7697,0,U,64333,999,5987,.12367746E-2,.33929E-3,0
STARLINK-34260,2025-124T,2026-07-06T00:17:07.465344,15.27555730,.00010175,43.0034,173.7153,227.3249,132.7517,0,U,64334,999,5987,.60276351E-3,.16349E-3,0
STARLINK-33855,2025-124U,2026-07-06T01:08:44.267712,15.27597539,.00013465,42.9978,173.1114,214.9157,145.1606,0,U,64335,999,5988,.65927E-3,.17933E-3,0
STARLINK-34223,2025-124V,2026-07-05T10:45:20.392416,15.27618590,.00015983,43.0013,172.8946,263.8616,96.2054,0,U,64336,999,5983,.905918E-3,.2478E-3,0
STARLINK-34216,2025-124W,2026-07-05T23:14:12.569856,15.27572991,.00013128,42.9990,173.3791,246.6060,113.4654,0,U,64337,999,5987,.95946152E-3,.26229E-3,0
STARLINK-34218,2025-124X,2026-07-05T07:53:41.147808,15.27625917,.0001354,42.9991,173.7259,273.7388,86.3309,0,U,64338,999,5981,.1478E-2,.40692E-3,0
STARLINK-34017,2025-124Y,2026-07-05T22:17:03.740928,15.27596663,.00020797,42.9998,173.9403,289.6030,70.4597,0,U,64339,999,5986,.11438341E-2,.31364E-3,0
STARLINK-33977,2025-126A,2026-07-06T04:32:26.666592,14.98315262,.00030511,70.0000,95.6145,272.0991,87.9819,0,U,64344,999,5964,-.14994533E-3,-.1881E-4,0
STARLINK-34426,2025-126B,2026-07-06T04:26:11.649984,14.98315632,.00036137,69.9997,95.5940,271.7956,88.2789,0,U,64345,999,5843,-.27090219E-3,-.3323E-4,0
STARLINK-34437,2025-126C,2026-07-06T03:32:08.530944,14.98317731,.00027665,70.0006,95.8672,273.0949,86.9893,0,U,64346,999,5842,-.21888219E-4,-.354E-5,0
STARLINK-34407,2025-126D,2026-07-06T03:38:23.392032,14.98322054,.00031385,70.0005,95.8773,268.4790,91.6009,0,U,64347,999,5842,.38302297E-4,.364E-5,0
STARLINK-34274,2025-126E,2026-07-06T03:56:10.812192,14.98313242,.00034275,70.0003,95.9266,265.1936,94.8832,0,U,64348,999,5842,-.38735361E-3,-.471E-4,0
STARLINK-34301,2025-126F,2026-07-06T04:32:12.482304,14.98317725,.0002852,70.0003,95.6095,272.1259,87.9574,0,U,64349,999,5843,-.18671817E-3,-.2319E-4,0
STARLINK-34425,2025-126G,2026-07-06T03:26:08.192832,14.98318644,.0002907,70.0006,95.8496,268.7833,91.2993,0,U,64350,999,5842,.13482433E-3,.1516E-4,0
STARLINK-34389,2025-126H,2026-07-06T03:08:20.416704,14.98332622,.000312,70.0005,95.8032,269.4311,90.6490,0,U,64351,999,5842,.64293162E-4,.674E-5,0
STARLINK-34385,2025-126J,2026-07-06T03:44:09.645216,14.98324906,.00029513,70.0007,95.8960,266.9913,93.0909,0,U,64352,999,5842,-.4080736E-3,-.4958E-4,0
STARLINK-34431,2025-126K,2026-07-06T02:50:17.973312,14.98314482,.00027686,70.0004,95.7657,266.5265,93.5577,0,U,64353,999,5842,-.26736925E-3,-.328E-4,0
STARLINK-34473,2025-126L,2026-07-06T03:08:05.472960,14.98310854,.0003452,70.0003,95.8089,269.5937,90.4827,0,U,64354,999,5842,-.45589077E-3,-.5526E-4,0
STARLINK-34270,2025-126M,2026-07-06T00:01:50.167776,14.98319454,.00031643,70.0003,96.1575,277.9225,82.1575,0,U,64355,999,5960,-.24607076E-3,-.3027E-4,0
STARLINK-34397,2025-126N,2026-07-06T03:50:10.227840,14.98301052,.00033245,70.0004,95.9071,265.9238,94.1541,0,U,64356,999,5842,-.21645728E-4,-.351E-5,0
STARLINK-34454,2025-126P,2026-07-06T03:56:25.269504,14.98312816,.00027888,70.0009,95.9225,269.2370,90.8469,0,U,64357,999,5842,-.42203015E-3,-.5123E-4,0
STARLINK-34436,2025-126Q,2026-07-06T04:14:24.585216,14.98314596,.00030935,70.0000,95.5613,257.3300,102.7513,0,U,64358,999,5843,-.50341938E-3,-.6092E-4,0
STARLINK-34291,2025-126R,2026-07-06T03:02:19.129920,14.98311459,.0002621,70.0004,95.7865,268.0180,92.0679,0,U,64359,999,5842,-.45983269E-3,-.5572E-4,0
STARLINK-34458,2025-126S,2026-07-06T03:14:20.601888,14.98310862,.00026474,70.0004,95.8180,266.3288,93.7569,0,U,64360,999,5842,-.50297444E-3,-.6086E-4,0
STARLINK-34243,2025-126T,2026-07-06T03:20:06.927648,14.98310653,.00030264,70.0001,95.8347,271.1065,88.9748,0,U,64361,999,5842,-.35796689E-3,-.4359E-4,0
STARLINK-34335,2025-126U,2026-07-06T04:20:11.203008,14.98317792,.00028523,70.0004,95.5803,263.6364,96.4470,0,U,64362,999,5843,-.79801199E-4,-.1045E-4,0
STARLINK-34408,2025-126V,2026-07-06T04:08:09.875328,14.98314070,.00024081,70.0006,95.5498,271.3767,88.7116,0,U,64363,999,5843,-.43378586E-3,-.5263E-4,0
STARLINK-34476,2025-126W,2026-07-06T03:02:04.847136,14.98310554,.00029926,70.0003,95.7903,270.1402,89.9414,0,U,64364,999,5842,-.48906927E-3,-.5921E-4,0
STARLINK-34479,2025-126X,2026-07-06T04:02:11.597856,14.98317160,.00029037,70.0003,95.9349,269.0715,91.0112,0,U,64365,999,5842,-.20519827E-3,-.254E-4,0
STARLINK-34484,2025-126Y,2026-07-06T04:14:10.375872,14.98313270,.00029808,70.0002,95.5611,266.4743,93.6076,0,U,64366,999,5964,-.35971503E-3,-.438E-4,0
STARLINK-34483,2025-126Z,2026-07-06T04:20:25.414080,14.98312010,.00025674,70.0004,95.5749,261.5188,98.5680,0,U,64367,999,5843,-.41784895E-3,-.5073E-4,0
STARLINK-34457,2025-126AA,2026-07-06T03:38:09.269088,14.98315043,.00027231,70.0009,95.8760,264.6606,95.4243,0,U,64368,999,5842,-.14375285E-3,-.1807E-4,0
STARLINK-34444,2025-126AB,2026-07-06T03:44:23.968608,14.98313562,.00028783,70.0005,95.8904,267.6119,92.4711,0,U,64369,999,5842,-.35874531E-3,-.4369E-4,0
STARLINK-11732 [DTC],2025-127A,2026-07-06T06:00:04.000320,15.70890827,.00016245,42.9998,89.9582,263.7591,259.5365,0,U,64370,999,536,.37045224E-3,.4746E-3,0
STARLINK-11731 [DTC],2025-127B,2026-07-06T02:38:21.908256,15.70901520,.00017071,43.0006,91.0240,270.8859,89.1813,0,U,64371,999,6212,.18162674E-2,.24008E-2,0
STARLINK-11746 [DTC],2025-127C,2026-07-06T01:52:29.382240,15.70911382,.00024448,43.0007,90.7662,265.4785,94.5804,0,U,64372,999,6212,.14141593E-2,.185682E-2,0
STARLINK-11748 [DTC],2025-127D,2026-07-06T04:26:31.413984,15.70904601,.00018967,43.0009,90.7320,284.6243,75.4414,0,U,64373,999,6213,.13655037E-2,.179077E-2,0
STARLINK-11739 [DTC],2025-127E,2026-07-05T17:51:44.897760,15.70897064,.00011802,42.9991,92.5549,233.9447,126.1312,0,U,64374,999,6207,.26726123E-2,.358565E-2,0
STARLINK-11738 [DTC],2025-127F,2026-07-05T17:44:17.589408,15.70880564,.00018213,43.0011,93.4069,234.4392,125.6306,0,U,64375,999,6206,.26655474E-2,.357305E-2,0
STARLINK-11745 [DTC],2025-127G,2026-07-06T02:07:46.263360,15.70826631,.00014132,42.9991,90.8504,259.8246,100.2462,0,U,64376,999,6212,.16415849E-2,.215622E-2,0
STARLINK-11742 [DTC],2025-127H,2026-07-06T02:30:43.009344,15.70905949,.00016029,43.0001,90.9782,264.2748,95.7937,0,U,64377,999,6212,.16219028E-2,.213693E-2,0
STARLINK-11711 [DTC],2025-127J,2026-07-06T03:16:24.091680,15.70893291,.00023561,43.0001,90.3394,283.4370,76.6235,0,U,64378,999,6224,.12380518E-2,.161911E-2,0
STARLINK-11743 [DTC],2025-127K,2026-07-06T02:46:00.321600,15.70883674,.00021453,43.0002,91.0652,313.3156,46.7533,0,U,64379,999,6212,.15042236E-2,.197587E-2,0
STARLINK-11744 [DTC],2025-127L,2026-07-06T02:23:04.364448,15.70882025,.00017842,42.9993,90.9340,273.9255,86.1408,0,U,64380,999,6212,.127302E-2,.166505E-2,0
STARLINK-11692 [DTC],2025-127M,2026-07-06T03:31:41.512800,15.70899461,.00022353,42.9998,90.4235,283.3499,76.7119,0,U,64381,999,6224,.14119453E-2,.185286E-2,0
STARLINK-11740 [DTC],2025-127N,2026-07-06T04:40:17.951808,15.71019055,.00051423,42.9997,89.9097,233.7122,126.3271,0,U,64382,999,6214,.19873156E-2,.264936E-2,0
STARLINK-34299,2025-127P,2026-07-05T20:23:17.062656,15.27599367,.00024846,43.0028,232.8663,267.7019,92.3548,0,U,64383,999,6048,.58234388E-3,.15807E-3,0
STARLINK-34271,2025-127Q,2026-07-06T03:57:28.094400,15.27594731,.00010098,43.0078,230.9263,277.4708,82.6029,0,U,64384,999,6058,.14553027E-2,.4002E-3,0
STARLINK-34100,2025-127R,2026-07-06T04:02:58.837056,15.27572601,.00003993,43.0003,230.9573,5.1150,354.9706,0,U,64385,999,6053,.73445585E-3,.19999E-3,0
STARLINK-34269,2025-127S,2026-07-06T04:30:32.592672,15.27536463,.00012559,42.9999,230.2385,259.7226,100.3485,0,U,64386,999,6059,.82127564E-3,.22376E-3,0
STARLINK-34351,2025-127T,2026-07-06T02:54:30.910176,15.27543580,.00020597,43.0026,230.5959,269.9573,90.1043,0,U,64387,999,6058,.41746912E-3,.11231E-3,0
STARLINK-34198,2025-127U,2026-07-06T04:26:49.609824,15.27584966,.00024501,43.0007,230.2210,287.0578,73.0005,0,U,64388,999,6059,.9512818E-3,.26012E-3,0
STARLINK-34279,2025-127V,2026-07-06T04:23:20.196960,15.27542399,.00013406,43.0015,231.0675,253.0776,106.9928,0,U,64389,999,6058,.61688667E-3,.16732E-3,0
